COSMOS 2433 (720)       
1 32275U 07052A   23273.31098801 -.00000072  00000+0  00000+0 0  9998
2 32275  66.0146 349.0723 0004540 229.9768 130.0421  2.13104015123989
COSMOS 2432 (719)       
1 32276U 07052B   23273.38678017 -.00000073  00000+0  00000+0 0  9990
2 32276  66.0290 349.1789 0008979 314.4705  50.6730  2.13103136123987
COSMOS 2434 (721)       
1 32393U 07065A   23272.74840068  .00000006  00000+0  00000+0 0  9995
2 32393  64.3348 225.4424 0000999  68.2398 111.4385  2.13103003122647
COSMOS 2436 (723)       
1 32395U 07065C   23273.51652091  .00000011  00000+0  00000+0 0  9996
2 32395  64.3433 225.4782 0016036 355.4985 188.9456  2.13102677122625
COSMOS 2456 (730)       
1 36111U 09070A   23273.01577145  .00000050  00000+0  00000+0 0  9998
2 36111  64.5012 104.9242 0001528 340.3570 203.2483  2.13099119107300
COSMOS 2457 (733)       
1 36112U 09070B   23272.38823515  .00000058  00000+0  00000+0 0  9991
2 36112  64.4847 104.8105 0006327 146.6747  46.4951  2.13101287107293
COSMOS 2460 (732)       
1 36402U 10007C   23273.70498863 -.00000073  00000+0  00000+0 0  9994
2 36402  65.8764 347.7702 0001763 213.3269 258.7081  2.13106189105712
COSMOS 2476 (744)       
1 37867U 11064A   23273.15585741  .00000051  00000+0  00000+0 0  9990
2 37867  64.7806 106.4563 0021237 230.6959 329.9084  2.13101683 92649
COSMOS 2477 (745)       
1 37868U 11064B   23273.60738659  .00000045  00000+0  00000+0 0  9992
2 37868  64.7882 106.5108 0018436 230.8300 134.0452  2.13101572 92662
COSMOS 2475 (743)       
1 37869U 11064C   23271.08978862  .00000074  00000+0  00000+0 0  9997
2 37869  64.7941 106.6087 0022425 249.4705 302.5008  2.13101882 92601
COSMOS 2485 (747)       
1 39155U 13019A   23273.30561082  .00000049  00000+0  00000+0 0  9990
2 39155  64.9406 106.9804 0021785 226.6585 133.2276  2.13101842 81161
COSMOS 2492 (754)       
1 39620U 14012A   23272.79184644 -.00000069  00000+0  00000+0 0  9991
2 39620  65.7601 347.4155 0012136 312.7405  47.2178  2.13103024 74119
COSMOS 2500 (755)       
1 40001U 14032A   23272.03628906 -.00000066  00000+0  00000+0 0  9996
2 40001  65.6985 347.2664 0008415 205.2211 154.7969  2.13105765 72313
COSMOS 2501 (702K)      
1 40315U 14075A   23272.28641724  .00000002  00000+0  00000+0 0  9990
2 40315  63.6379 224.7902 0019595 210.4405 149.4182  2.13101217 68719
COSMOS 2514 (751)       
1 41330U 16008A   23273.67566509 -.00000073  00000+0  00000+0 0  9996
2 41330  65.4950 346.7861 0012291 211.9639 148.0227  2.13102525 59518
COSMOS 2522 (752)       
1 42939U 17055A   23273.04799870  .00000008  00000+0  00000+0 0  9992
2 42939  64.0985 225.7045 0009035 243.0338 116.8470  2.13101935 46851
COSMOS 2527 (756)       
1 43508U 18053A   23272.06826053  .00000066  00000+0  00000+0 0  9993
2 43508  65.1015 107.1199 0007463 214.3895 145.6378  2.13102365 41136
COSMOS 2529 (757)       
1 43687U 18086A   23273.57525955  .00000012  00000+0  00000+0 0  9992
2 43687  64.3138 226.1289 0010684 263.3714  96.4813  2.13101980 38175
COSMOS 2534 (758)       
1 44299U 19030A   23273.62456022  .00000012  00000+0  00000+0 0  9996
2 44299  64.3863 226.0561 0012907 283.1487 248.7914  2.13101777 33824
COSMOS 2544 (759)       
1 44850U 19088A   23272.95052899  .00000054  00000+0  00000+0 0  9997
2 44850  65.0880 106.9327 0011145 249.1538 110.7969  2.13102136 29599
COSMOS 2545 (760)       
1 45358U 20018A   23273.61661150 -.00000074  00000+0  00000+0 0  9999
2 45358  64.8353 347.0117 0010904 240.4924 119.4595  2.13102449 27557
COSMOS 2547 (705K)      
1 46805U 20075A   23272.39763630  .00000004  00000+0  00000+0 0  9992
2 46805  64.6140 225.6612 0008024 243.7505 116.1392  2.13102763 22776
COSMOS 2557 (706K)      
1 52984U 22075A   23272.56039959 -.00000072  00000+0  00000+0 0  9994
2 52984  64.7531 349.2049 0012588 275.2121  84.7013  2.13102195  9580
COSMOS 2559 (707K)      
1 54031U 22130A   23272.50246297 -.00000072  00000+0  00000+0 0  9990
2 54031  64.7243 349.3336 0007577 221.3522 138.6470  2.13101391  7552
COSMOS 2564 (761)       
1 54377U 22161A   23273.16466380  .00000009  00000+0  00000+0 0  9996
2 54377  64.7548 225.6931 0010171 224.8191 135.0724  2.13102110  6512
COSMOS 2569 (703K)      
1 57517U 23114A   23270.83803744  .00000076  00000+0  00000+0 0  9998
2 57517  64.8102 106.2489 0008707 296.9378  63.0530  2.13103934  1097
